      2.10          N: GNSS NAV DATA                        RINEX VERSION / TYPE
fic2rin                                 04/24/2023 00:17:58 PGM / RUN BY / DATE
                                                            END OF HEADER
10 23  4 23 14  0  0.0 -.340398401022D-04 -.159161572810D-11  .000000000000D+00
     .450000000000D+02 -.591875000000D+02  .374444168531D-08  .279723257064D+01
    -.297836959362D-05  .846281682607D-02  .107362866402D-04  .515368868828D+04
     .504000000000D+05 -.149011611938D-07 -.235915331662D+01 -.894069671631D-07
     .978240478111D+00  .180500000000D+03 -.242903247477D+01 -.741066582683D-08
     .506092509356D-09  .100000000000D+01  .225900000000D+04  .000000000000D+00
     .240000000000D+01  .000000000000D+00  .232830643654D-08  .450000000000D+02
     .432000000000D+05  .400000000000D+01
8  23  4 23 14  0  0.0 -.119126867503D-03 -.181898940355D-11  .000000000000D+00
     .910000000000D+02  .666562500000D+02  .479305679291D-08  .812711274035D+00
     .364519655704D-05  .844583299477D-02  .154599547386D-05  .515368843079D+04
     .504000000000D+05  .260770320892D-07  .180546467484D+01  .894069671631D-07
     .958844855668D+00  .342875000000D+03  .258348875096D+00 -.853106963901D-08
    -.960754304987D-10  .100000000000D+01  .225900000000D+04  .000000000000D+00
     .340000000000D+01  .000000000000D+00  .512227416039D-08  .910000000000D+02
     .432000000000D+05  .400000000000D+01
9  23  4 23 14  0  0.0 -.173948705196D-03  .807176547823D-11  .000000000000D+00
     .840000000000D+02  .150000000000D+01  .485055918812D-08  .120539783316D+01
     .163912773132D-06  .234375672881D-02  .586733222008D-05  .515362271500D+04
     .504000000000D+05  .186264514923D-07 -.133163661251D+01 -.100582838058D-06
     .955504239810D+00  .262718750000D+03  .196018483512D+01 -.812462413749D-08
     .402516766439D-09  .100000000000D+01  .225900000000D+04  .000000000000D+00
     .240000000000D+01  .000000000000D+00  .139698386192D-08  .840000000000D+02
     .432000000000D+05  .400000000000D+01
7  23  4 23 14  0  0.0  .194798689336D-03 -.875388650456D-11  .000000000000D+00
     .630000000000D+02 -.105312500000D+02  .484377319117D-08 -.200210131336D+01
    -.722706317902D-06  .171562638134D-01  .787712633610D-05  .515375042534D+04
     .504000000000D+05  .217929482460D-06 -.259786231608D+00 -.335276126862D-07
     .950737369525D+00  .215250000000D+03 -.220395537314D+01 -.782782606038D-08
    -.202151277555D-09  .100000000000D+01  .225900000000D+04  .000000000000D+00
     .240000000000D+01  .000000000000D+00 -.111758708954D-07  .630000000000D+02
     .432000000000D+05  .400000000000D+01
11 23  4 23 14  0  0.0 -.172251369804D-03 -.129602995003D-10  .000000000000D+00
     .640000000000D+02 -.104687500000D+03  .425089135240D-08  .173963214998D+00
    -.550970435143D-05  .772011582740D-03  .565685331821D-05  .515373858643D+04
     .504000000000D+05  .260770320892D-07  .293016385496D+01  .223517417908D-07
     .965486474490D+00  .273062500000D+03 -.279096755228D+01 -.805890711440D-08
    -.256082095419D-09  .100000000000D+01  .225900000000D+04  .000000000000D+00
     .240000000000D+01  .000000000000D+00 -.884756445885D-08  .832000000000D+03
     .432000000000D+05  .400000000000D+01
31 23  4 23 14  0  0.0 -.214617699385D-03 -.909494701773D-12  .000000000000D+00
     .310000000000D+02 -.281250000000D+00  .477698469487D-08 -.279123904501D+01
    -.193715095520D-06  .105959345819D-01  .886432826519D-05  .515419946480D+04
     .504000000000D+05 -.577419996262D-07 -.239955850393D+00 -.244006514549D-06
     .954840709908D+00  .206843750000D+03  .525378837737D+00 -.781032533140D-08
    -.414302971667D-09  .100000000000D+01  .225900000000D+04  .000000000000D+00
     .240000000000D+01  .000000000000D+00 -.135041773319D-07  .310000000000D+02
     .432000000000D+05  .400000000000D+01
30 23  4 23 14  0  0.0 -.520931091160D-03  .193267624127D-11  .000000000000D+00
     .190000000000D+02 -.158750000000D+02  .523521806785D-08 -.213702238132D+01
    -.112690031528D-05  .641050504055D-02  .853650271893D-05  .515360481644D+04
     .504000000000D+05  .109896063805D-06 -.253162470627D+00 -.838190317154D-07
     .935866440057D+00  .201250000000D+03 -.260522636627D+01 -.820177020808D-08
    -.319656172105D-09  .100000000000D+01  .225900000000D+04  .000000000000D+00
     .240000000000D+01  .000000000000D+00  .372529029846D-08  .190000000000D+02
     .432000000000D+05  .400000000000D+01
27 23  4 23 14  0  0.0  .525694340467D-04 -.829913915368D-11  .000000000000D+00
     .180000000000D+02  .606250000000D+02  .463447875893D-08  .834172845482D+00
     .338442623615D-05  .115632540546D-01  .184774398804D-05  .515366684532D+04
     .504000000000D+05 -.894069671631D-07  .182853692933D+01  .100582838058D-06
     .967724518251D+00  .346125000000D+03  .728955581572D+00 -.852321216886D-08
    -.123576576032D-09  .100000000000D+01  .225900000000D+04  .000000000000D+00
     .240000000000D+01  .000000000000D+00  .186264514923D-08  .180000000000D+02
     .432000000000D+05  .400000000000D+01
29 23  4 23 14  0  0.0 -.596696510911D-03 -.159161572810D-11  .000000000000D+00
     .370000000000D+02  .318125000000D+02  .433625205087D-08  .956142651408D+00
     .141002237797D-05  .244722841308D-02  .109523534775D-05  .515378219032D+04
     .504000000000D+05  .353902578354D-07  .190803671954D+01 -.707805156708D-07
     .976647862104D+00  .363843750000D+03  .236119997558D+01 -.825927260328D-08
    -.106075847056D-09  .100000000000D+01  .225900000000D+04  .000000000000D+00
     .240000000000D+01  .000000000000D+00 -.102445483208D-07  .370000000000D+02
     .432000000000D+05  .400000000000D+01
32 23  4 23 14  0  0.0 -.458991155028D-03 -.977706804406D-11  .000000000000D+00
     .770000000000D+02 -.293750000000D+01  .485127350359D-08  .146859660791D+01
    -.130385160446D-06  .686540384777D-02  .584684312344D-05  .515372653961D+04
     .504000000000D+05 -.149011611938D-06 -.131860855313D+01  .372529029846D-07
     .959145151788D+00  .262593750000D+03 -.221179095987D+01 -.814819654795D-08
     .312155859687D-09  .100000000000D+01  .225900000000D+04  .000000000000D+00
     .240000000000D+01  .000000000000D+00  .465661287308D-09  .770000000000D+02
     .432000000000D+05  .400000000000D+01
24 23  4 23 14  0  0.0 -.162729993463D-03 -.144382283906D-10  .000000000000D+00
     .730000000000D+02 -.105625000000D+02  .533022202514D-08 -.109178829245D+01
    -.331550836563D-06  .138121945783D-01  .789016485214D-05  .515365189934D+04
     .504000000000D+05  .258907675743D-06 -.349838270820D+00  .238418579102D-06
     .934251327295D+00  .211937500000D+03  .890736505722D+00 -.828213069827D-08
    -.386087510666D-09  .100000000000D+01  .225900000000D+04  .000000000000D+00
     .240000000000D+01  .000000000000D+00  .232830643654D-08  .730000000000D+02
     .432000000000D+05  .400000000000D+01
16 23  4 23 14  0  0.0 -.506683718413D-03  .284217094304D-11  .000000000000D+00
     .600000000000D+02  .120781250000D+03  .440196907397D-08  .168963564164D+01
     .623427331448D-05  .133590501500D-01  .951252877712D-05  .515359249115D+04
     .504000000000D+05 -.355765223503D-06  .872716370060D+00  .409781932831D-07
     .965576081148D+00  .202468750000D+03  .786815494024D+00 -.796068873750D-08
    -.682171272315D-10  .100000000000D+01  .225900000000D+04  .000000000000D+00
     .240000000000D+01  .000000000000D+00 -.102445483208D-07  .600000000000D+02
     .432000000000D+05  .400000000000D+01
21 23  4 23 14  0  0.0  .154125038534D-03 -.113686837722D-12  .000000000000D+00
     .380000000000D+02 -.101375000000D+03  .451590239118D-08  .765555587297D+00
    -.591389834881D-05  .247243994381D-01  .356882810593D-05  .515363298798D+04
     .504000000000D+05  .355765223503D-06  .279376197012D+01 -.383704900742D-06
     .961887268843D+00  .310781250000D+03 -.773136686258D+00 -.847678166341D-08
    -.339657005220D-09  .100000000000D+01  .225900000000D+04  .000000000000D+00
     .240000000000D+01  .000000000000D+00 -.102445483208D-07  .380000000000D+02
     .432000000000D+05  .400000000000D+01
20 23  4 23 14  0  0.0  .437432900071D-03 -.216004991671D-11  .000000000000D+00
     .240000000000D+02 -.525625000000D+02  .452983154281D-08 -.567102529708D+00
    -.273250043392D-05  .422020128462D-02  .988878309727D-05  .515380370140D+04
     .504000000000D+05  .145286321640D-06 -.252441128544D+01  .111758708954D-07
     .948133142740D+00  .182656250000D+03 -.288408733802D+01 -.801569102856D-08
     .306084178206D-09  .100000000000D+01  .225900000000D+04  .000000000000D+00
     .240000000000D+01  .000000000000D+00 -.838190317154D-08  .240000000000D+02
     .432000000000D+05  .400000000000D+01
15 23  4 23 14  0  0.0  .332253985107D-04  .341060513165D-11  .000000000000D+00
     .790000000000D+02  .796875000000D+01  .551880130880D-08 -.138144176385D+00
     .482425093651D-06  .148211586056D-01  .602379441261D-05  .515370099831D+04
     .504000000000D+05 -.134110450745D-06 -.144917102198D+01  .203028321266D-06
     .931782081035D+00  .251531250000D+03  .119030002265D+01 -.869964808955D-08
     .431089385175D-09  .100000000000D+01  .225900000000D+04  .000000000000D+00
     .240000000000D+01  .000000000000D+00 -.107102096081D-07  .790000000000D+02
     .432000000000D+05  .400000000000D+01
28 23  4 23 14  0  0.0  .693770125508D-04  .545696821064D-11  .000000000000D+00
     .107000000000D+03 -.750000000000D+00  .467983779117D-08  .269832837463D+01
    -.251457095146D-06  .794217223302D-03  .852718949318D-05  .515366193962D+04
     .504000000000D+05  .502914190292D-07 -.297509983708D+00 -.428408384323D-07
     .961869699197D+00  .216468750000D+03  .172148193603D+01 -.788425698238D-08
    -.420731810883D-09  .100000000000D+01  .225900000000D+04  .000000000000D+00
     .240000000000D+01  .000000000000D+00 -.139698386192D-08  .107000000000D+03
     .432000000000D+05  .400000000000D+01
